CTC1_L_00353016-03
1 26423U 23553GG  26070.40835648  .00000000  00000+0  00000-0 0  9997
2 26423  60.0000 180.0000 0000000   0.0000   0.0000 13.72670257    15
CTC1_L_00353016-04
1 26424U 26993ZD  26070.40835648  .00000000  00000+0  00000-0 0  9999
2 26424  60.0000 180.0000 0000000   0.0000  90.0000 13.72670257    15
CTC1_L_00353017-01
1 26425U 24759MI  26070.40835648  .00000000  00000+0  00000-0 0  9998
2 26425  60.0000 192.0000 0000000   0.0000 192.0000 13.72670257    12
CTC1_L_00353017-02
1 26426U 22110QB  26070.40835648  .00000000  00000+0  00000-0 0  9998
2 26426  60.0000 192.0000 0000000   0.0000 282.0000 13.72670257    13
CTC1_L_00353017-03
1 26427U 23967SF  26070.40835648  .00000000  00000+0  00000-0 0  9990
2 26427  60.0000 192.0000 0000000   0.0000  12.0000 13.72670257    15
CTC1_L_00353017-04
1 26428U 25456NA  26070.40835648  .00000000  00000+0  00000-0 0  9996
2 26428  60.0000 192.0000 0000000   0.0000 102.0000 13.72670257    16
CTC1_L_00353018-01
1 26429U 23003ES  26070.40835648  .00000000  00000+0  00000-0 0  9993
2 26429  60.0000 204.0000 0000000   0.0000 204.0000 13.72670257    14
CTC1_L_00353018-02
1 26430U 22111TQ  26070.40835648  .00000000  00000+0  00000-0 0  9994
2 26430  60.0000 204.0000 0000000   0.0000 294.0000 13.72670257    15
CTC1_L_00353018-03
1 26431U 22320ZO  26070.40835648  .00000000  00000+0  00000-0 0  9997
2 26431  60.0000 204.0000 0000000   0.0000  24.0000 13.72670257    17
CTC1_L_00353018-04
1 26432U 26756BK  26070.40835648  .00000000  00000+0  00000-0 0  9995
2 26432  60.0000 204.0000 0000000   0.0000 114.0000 13.72670257    18
CTC1_L_00353019-01
1 26433U 23959WG  26070.40835648  .00000000  00000+0  00000-0 0  9998
2 26433  60.0000 216.0000 0000000   0.0000 216.0000 13.72670257    15
CTC1_L_00353019-02
1 26434U 26076KE  26070.40835648  .00000000  00000+0  00000-0 0  9992
2 26434  60.0000 216.0000 0000000   0.0000 306.0000 13.72670257    16
CTC1_L_00353019-03
1 26435U 24835JR  26070.40835648  .00000000  00000+0  00000-0 0  9994
2 26435  60.0000 216.0000 0000000   0.0000  36.0000 13.72670257    17
CTC1_L_00353019-04
1 26436U 23452YI  26070.40835648  .00000000  00000+0  00000-0 0  9999
2 26436  60.0000 216.0000 0000000   0.0000 126.0000 13.72670257    18
CTC1_L_00353020-01
1 26437U 26072YZ  26070.40835648  .00000000  00000+0  00000-0 0  9991
2 26437  60.0000 228.0000 0000000   0.0000 228.0000 13.72670257    15
CTC1_L_00353020-02
1 26438U 23165NL  26070.40835648  .00000000  00000+0  00000-0 0  9992
2 26438  60.0000 228.0000 0000000   0.0000 318.0000 13.72670257    16
CTC1_L_00353020-03
1 26439U 25397CV  26070.40835648  .00000000  00000+0  00000-0 0  9992
2 26439  60.0000 228.0000 0000000   0.0000  48.0000 13.72670257    17
CTC1_L_00353020-04
1 26440U 26244KW  26070.40835648  .00000000  00000+0  00000-0 0  9996
2 26440  60.0000 228.0000 0000000   0.0000 138.0000 13.72670257    19
CTC1_L_00353021-01
1 26441U 22456IB  26070.40835648  .00000000  00000+0  00000-0 0  9998
2 26441  60.0000 240.0000 0000000   0.0000 240.0000 13.72670257    18
CTC1_L_00353021-02
1 26442U 22997HL  26070.40835648  .00000000  00000+0  00000-0 0  9999
2 26442  60.0000 240.0000 0000000   0.0000 330.0000 13.72670257    19
CTC1_L_00353021-03
1 26443U 25749VK  26070.40835648  .00000000  00000+0  00000-0 0  9998
2 26443  60.0000 240.0000 0000000   0.0000  60.0000 13.72670257    10
CTC1_L_00353021-04
1 26444U 25920AK  26070.40835648  .00000000  00000+0  00000-0 0  9990
2 26444  60.0000 240.0000 0000000   0.0000 150.0000 13.72670257    11
CTC1_L_00353022-01
1 26445U 26541CN  26070.40835648  .00000000  00000+0  00000-0 0  9991
2 26445  60.0000 252.0000 0000000   0.0000 252.0000 13.72670257    18
CTC1_L_00353022-02
1 26446U 22934MI  26070.40835648  .00000000  00000+0  00000-0 0  9994
2 26446  60.0000 252.0000 0000000   0.0000 342.0000 13.72670257    19
CTC1_L_00353022-03
1 26447U 26252NK  26070.40835648  .00000000  00000+0  00000-0 0  9992
2 26447  60.0000 252.0000 0000000   0.0000  72.0000 13.72670257    10
CTC1_L_00353022-04
1 26448U 26933OO  26070.40835648  .00000000  00000+0  00000-0 0  9999
2 26448  60.0000 252.0000 0000000   0.0000 162.0000 13.72670257    11
CTC1_L_00353023-01
1 26449U 24305ZE  26070.40835648  .00000000  00000+0  00000-0 0  9991
2 26449  60.0000 264.0000 0000000   0.0000 264.0000 13.72670257    18
CTC1_L_00353023-02
1 26450U 23187TW  26070.40835648  .00000000  00000+0  00000-0 0  9990
2 26450  60.0000 264.0000 0000000   0.0000 354.0000 13.72670257    10
CTC1_L_00353023-03
1 26451U 24355BV  26070.40835648  .00000000  00000+0  00000-0 0  9999
2 26451  60.0000 264.0000 0000000   0.0000  84.0000 13.72670257    11
CTC1_L_00353023-04
1 26452U 22703PQ  26070.40835648  .00000000  00000+0  00000-0 0  9995
2 26452  60.0000 264.0000 0000000   0.0000 174.0000 13.72670257    12
CTC1_L_00353024-01
1 26453U 22230DG  26070.40835648  .00000000  00000+0  00000-0 0  9991
2 26453  60.0000 276.0000 0000000   0.0000 276.0000 13.72670257    19
CTC1_L_00353024-02
1 26454U 23143MM  26070.40835648  .00000000  00000+0  00000-0 0  9996
2 26454  60.0000 276.0000 0000000   0.0000   6.0000 13.72670257    11
CTC1_L_00353024-03
1 26455U 26347DH  26070.40835648  .00000000  00000+0  00000-0 0  9996
2 26455  60.0000 276.0000 0000000   0.0000  96.0000 13.72670257    11
CTC1_L_00353024-04
1 26456U 26425EI  26070.40835648  .00000000  00000+0  00000-0 0  9994
2 26456  60.0000 276.0000 0000000   0.0000 186.0000 13.72670257    12
CTC1_L_00353025-01
1 26457U 23573KP  26070.40835648  .00000000  00000+0  00000-0 0  9996
2 26457  60.0000 288.0000 0000000   0.0000 288.0000 13.72670257    19
CTC1_L_00353025-02
1 26458U 23301FF  26070.40835648  .00000000  00000+0  00000-0 0  9996
2 26458  60.0000 288.0000 0000000   0.0000  18.0000 13.72670257    11
CTC1_L_00353025-03
1 26459U 22469XJ  26070.40835648  .00000000  00000+0  00000-0 0  9991
2 26459  60.0000 288.0000 0000000   0.0000 108.0000 13.72670257    12
CTC1_L_00353025-04
1 26460U 25441WV  26070.40835648  .00000000  00000+0  00000-0 0  9996
2 26460  60.0000 288.0000 0000000   0.0000 198.0000 13.72670257    13
CTC1_L_00353026-01
1 26461U 22252AM  26070.40835648  .00000000  00000+0  00000-0 0  9994
2 26461  60.0000 300.0000 0000000   0.0000 300.0000 13.72670257    14
CTC1_L_00353026-02
1 26462U 26397W   26070.40835648  .00000000  00000+0  00000-0 0  9999
2 26462  60.0000 300.0000 0000000   0.0000  30.0000 13.72670257    15
CTC1_L_00353026-03
1 26463U 24589WS  26070.40835648  .00000000  00000+0  00000-0 0  9991
2 26463  60.0000 300.0000 0000000   0.0000 120.0000 13.72670257    16
CTC1_L_00353026-04
1 26464U 23350RT  26070.40835648  .00000000  00000+0  00000-0 0  9997
2 26464  60.0000 300.0000 0000000   0.0000 210.0000 13.72670257    17
CTC1_L_00353027-01
1 26465U 26086ML  26070.40835648  .00000000  00000+0  00000-0 0  9997
2 26465  60.0000 312.0000 0000000   0.0000 312.0000 13.72670257    14
CTC1_L_00353027-02
1 26466U 26422HO  26070.40835648  .00000000  00000+0  00000-0 0  9992
2 26466  60.0000 312.0000 0000000   0.0000  42.0000 13.72670257    15
CTC1_L_00353027-03
1 26467U 26382KA  26070.40835648  .00000000  00000+0  00000-0 0  9998
2 26467  60.0000 312.0000 0000000   0.0000 132.0000 13.72670257    16
CTC1_L_00353027-04
1 26468U 22930AP  26070.40835648  .00000000  00000+0  00000-0 0  9994
2 26468  60.0000 312.0000 0000000   0.0000 222.0000 13.72670257    17
CTC1_L_00353028-01
1 26469U 25182WE  26070.40835648  .00000000  00000+0  00000-0 0  9997
2 26469  60.0000 324.0000 0000000   0.0000 324.0000 13.72670257    14
CTC1_L_00353028-02
1 26470U 26099RC  26070.40835648  .00000000  00000+0  00000-0 0  9997
2 26470  60.0000 324.0000 0000000   0.0000  54.0000 13.72670257    16
CTC1_L_00353028-03
1 26471U 23968TW  26070.40835648  .00000000  00000+0  00000-0 0  9990
2 26471  60.0000 324.0000 0000000   0.0000 144.0000 13.72670257    17
CTC1_L_00353028-04
1 26472U 26020NC  26070.40835648  .00000000  00000+0  00000-0 0  9993
2 26472  60.0000 324.0000 0000000   0.0000 234.0000 13.72670257    18
CTC1_L_00353029-01
1 26473U 22873J   26070.40835648  .00000000  00000+0  00000-0 0  9996
2 26473  60.0000 336.0000 0000000   0.0000 336.0000 13.72670257    15
CTC1_L_00353029-02
1 26474U 25098UJ  26070.40835648  .00000000  00000+0  00000-0 0  9999
2 26474  60.0000 336.0000 0000000   0.0000  66.0000 13.72670257    16
CTC1_L_00353029-03
1 26475U 25986HY  26070.40835648  .00000000  00000+0  00000-0 0  9996
2 26475  60.0000 336.0000 0000000   0.0000 156.0000 13.72670257    17
CTC1_L_00353029-04
1 26476U 24034KM  26070.40835648  .00000000  00000+0  00000-0 0  9990
2 26476  60.0000 336.0000 0000000   0.0000 246.0000 13.72670257    18
CTC1_L_00353030-01
1 26477U 22297KJ  26070.40835648  .00000000  00000+0  00000-0 0  9990
2 26477  60.0000 348.0000 0000000   0.0000 348.0000 13.72670257    15
CTC1_L_00353030-02
1 26478U 25338XB  26070.40835648  .00000000  00000+0  00000-0 0  9990
2 26478  60.0000 348.0000 0000000   0.0000  78.0000 13.72670257    16
CTC1_L_00353030-03
1 26479U 24394WY  26070.40835648  .00000000  00000+0  00000-0 0  9992
2 26479  60.0000 348.0000 0000000   0.0000 168.0000 13.72670257    17
CTC1_L_00353030-04
1 26480U 25994DX  26070.40835648  .00000000  00000+0  00000-0 0  9991
2 26480  60.0000 348.0000 0000000   0.0000 258.0000 13.72670257    19
